     2.11           N: GPS NAV DATA                         RINEX VERSION / TYPE
cnvtToRINEX 3.08.0  convertToRINEX OPR  10-Mar-23 03:43 UTC PGM / RUN BY / DATE 
gfzrnx-1.13-7761    FILE MERGE          20230315 030451 UTC COMMENT             
    18                  GPS                                 LEAP SECONDS        
   -0.558793544769e-08-0.133226762955e-13    61440     2252 DELTA-UTC: A0,A1,T,W
    0.3353E-07  0.7451E-08 -0.1788E-06  0.5960E-07          ION ALPHA           
    0.1393E+06  0.0000E+00 -0.1966E+06 -0.6554E+05          ION BETA            
                                                            COMMENT             
   ------------------------------------------------------   COMMENT             
      # of NAV. EPOCHS based on # of FILE CONTRIBUTIONS     COMMENT             
   ------------------------------------------------------   COMMENT             
                                                            COMMENT             
BRD_HD  PRN T    =1   <5  <10  <15  <25  <50 >=50    #EPO   COMMENT             
BRD_LN  -------------------------------------------------   COMMENT             
BRD_STK G01 _     1    .    .    .    .    .    .       1   COMMENT             
BRD_STK G03 _     1    .    .    .    .    .    .       1   COMMENT             
BRD_STK G04 _     1    .    .    .    .    .    .       1   COMMENT             
BRD_STK G08 _     1    .    .    .    .    .    .       1   COMMENT             
BRD_STK G09 _     1    .    .    .    .    .    .       1   COMMENT             
BRD_STK G16 _     2    .    .    .    .    .    .       2   COMMENT             
BRD_STK G18 _     1    .    .    .    .    .    .       1   COMMENT             
BRD_STK G21 _     1    .    .    .    .    .    .       1   COMMENT             
BRD_STK G26 _     1    .    .    .    .    .    .       1   COMMENT             
BRD_STK G27 _     1    .    .    .    .    .    .       1   COMMENT             
BRD_STK G28 _     1    .    .    .    .    .    .       1   COMMENT             
BRD_STK G31 _     1    .    .    .    .    .    .       1   COMMENT             
BRD_LN  -------------------------------------------------   COMMENT             
BRD_SYS G   -                                          13   COMMENT             
                                                            COMMENT             
BRD_LN  -------------------------------------------------   COMMENT             
BRD_ALL                                                13   COMMENT             
                                                            COMMENT             
                                                            END OF HEADER
01 23 03 10 04 00  0.0 2.043573185802e-04-3.865352482535e-12 0.000000000000e+00
    4.000000000000e+01 2.243750000000e+01 3.742298738907e-09-1.916891404255e+00
    9.834766387939e-07 1.247954240534e-02 1.175329089165e-05 5.153648569107e+03
    4.464000000000e+05 1.788139343262e-07-2.514162681173e+00-9.499490261078e-08
    9.897907020357e-01 1.656250000000e+02 9.389324720434e-01-7.405308460822e-09
    3.007268121931e-10 0.000000000000e+00 2.252000000000e+03 0.000000000000e+00
    4.850000000000e+00 0.000000000000e+00 4.656612873077e-09 4.000000000000e+01
    4.464000000000e+05 0.000000000000e+00 0.000000000000e+00 0.000000000000e+00
03 23 03 10 04 00  0.0-3.523514606059e-04 6.025402399246e-12 0.000000000000e+00
    2.400000000000e+01 4.434375000000e+01 4.550903849127e-09-3.065901318982e+00
    2.311542630196e-06 4.524885211140e-03 4.660338163376e-06 5.153701831818e+03
    4.464000000000e+05 4.470348358154e-08-1.482852990368e+00-8.381903171539e-08
    9.774495748582e-01 2.956875000000e+02 1.008311239068e+00-8.133910238582e-09
    2.917978688382e-10 0.000000000000e+00 2.252000000000e+03 0.000000000000e+00
    4.850000000000e+00 0.000000000000e+00 1.862645149231e-09 2.400000000000e+01
    4.464000000000e+05 0.000000000000e+00 0.000000000000e+00 0.000000000000e+00
04 23 03 10 04 00  0.0-0.105565413833e-04 0.864019966684e-11 0.000000000000e+00
    0.840000000000e+02-0.706875000000e+02 0.457090468224e-08-0.170135922867e+00
   -0.386685132980e-05 0.232606392819e-02 0.744871795177e-05 0.515370137405e+04
    0.446400000000e+06 0.931322574615e-08-0.401336220259e+00 0.316649675369e-07
    0.962724790906e+00 0.235156250000e+03-0.301469839184e+01-0.816426864599e-08
   -0.578952687132e-09 0.100000000000e+01 0.225200000000e+04 0.000000000000e+00
    0.200000000000e+01 0.000000000000e+00-0.465661287308e-08 0.852000000000e+03
    0.440388000000e+06 0.400000000000e+01 0.000000000000e+00 0.000000000000e+00
08 23 03 10 03 59 44.0-0.112188048661e-03-0.181898940355e-11 0.000000000000e+00
    0.200000000000e+02-0.723437500000e+02 0.472019661514e-08 0.293919868634e+00
   -0.373087823391e-05 0.840412557591e-02 0.582449138165e-05 0.515366589546e+04
    0.446384000000e+06 0.912696123123e-07 0.268008905288e+01 0.577419996262e-07
    0.959812062494e+00 0.266125000000e+03 0.232579753069e+00-0.837642034010e-08
   -0.362515100209e-09 0.100000000000e+01 0.225200000000e+04 0.000000000000e+00
    0.200000000000e+01 0.000000000000e+00 0.512227416039e-08 0.200000000000e+02
    0.440388000000e+06 0.400000000000e+01 0.000000000000e+00 0.000000000000e+00
09 23 03 10 04 00  0.0-0.203631818295e-03 0.738964445191e-11 0.000000000000e+00
    0.630000000000e+02-0.680312500000e+02 0.478055627221e-08 0.644384206949e+00
   -0.367127358913e-05 0.242718611844e-02 0.696629285812e-05 0.515365633583e+04
    0.446400000000e+06-0.502914190292e-07-0.457390259820e+00-0.223517417908e-07
    0.955915531913e+00 0.241687500000e+03 0.196692840763e+01-0.828105922507e-08
   -0.536093759028e-09 0.100000000000e+01 0.225200000000e+04 0.000000000000e+00
    0.200000000000e+01 0.000000000000e+00 0.139698386192e-08 0.630000000000e+02
    0.442398000000e+06 0.400000000000e+01 0.000000000000e+00 0.000000000000e+00
16 23 03 10 03 59 44.0-5.162591114640e-04 2.046363078989e-12 0.000000000000e+00
    7.000000000000e+00 4.843750000000e+01 4.730554189427e-09 1.121337976616e+00
    2.615153789520e-06 1.341479446273e-02 4.155561327934e-06 5.153562005997e+03
    4.463840000000e+05-1.452863216400e-07 1.746958601712e+00 1.043081283569e-07
    9.654963813711e-01 3.043750000000e+02 7.771548028855e-01-8.519640591513e-09
    1.196478409557e-10 0.000000000000e+00 2.252000000000e+03 0.000000000000e+00
    4.850000000000e+00 0.000000000000e+00-1.024454832077e-08 7.000000000000e+00
    4.463840000000e+05 0.000000000000e+00 0.000000000000e+00 0.000000000000e+00
18 23 03 10 04 00  0.0-1.730858348310e-04-1.625721779419e-11 0.000000000000e+00
    1.880000000000e+02 6.687500000000e+00 4.092313318419e-09-1.793009230854e+00
    2.291053533554e-07 2.993862726726e-03 1.188553869724e-05 5.153689720154e+03
    4.464000000000e+05 3.725290298462e-08-2.512033968595e+00-5.215406417847e-08
    9.736557850145e-01 1.590312500000e+02-3.119089987715e+00-7.758180302207e-09
    2.392956819114e-10 0.000000000000e+00 2.252000000000e+03 0.000000000000e+00
    4.850000000000e+00 0.000000000000e+00-8.381903171539e-09 7.000000000000e+02
    4.464000000000e+05 0.000000000000e+00 0.000000000000e+00 0.000000000000e+00
21 23 03 10 04 00  0.0 1.543052494526e-04 1.136868377216e-13 0.000000000000e+00
    2.100000000000e+01-7.468750000000e+00 4.538403328430e-09 2.385560001749e-01
   -6.426125764847e-07 2.484772203024e-02 1.168996095657e-05 5.153644542694e+03
    4.464000000000e+05 5.960464477539e-08-2.615588419836e+00-3.576278686523e-07
    9.617788870940e-01 1.623437500000e+02-7.987995784888e-01-8.354276560581e-09
    9.607543049875e-11 0.000000000000e+00 2.252000000000e+03 0.000000000000e+00
    4.850000000000e+00 0.000000000000e+00-1.024454832077e-08 2.100000000000e+01
    4.464000000000e+05 0.000000000000e+00 0.000000000000e+00 0.000000000000e+00
26 23 03 10 04 00  0.0 0.241933856159e-03 0.113686837722e-12 0.000000000000e+00
    0.170000000000e+02 0.692812500000e+02 0.536129474802e-08 0.209059881486e+01
    0.357814133167e-05 0.788569578435e-02 0.444799661636e-05 0.515365256882e+04
    0.446400000000e+06-0.182539224625e-06 0.159290435296e+01 0.372529029846e-07
    0.934240928873e+00 0.280062500000e+03 0.457044007592e+00-0.866786105120e-08
    0.332513850537e-09 0.100000000000e+01 0.225200000000e+04 0.000000000000e+00
    0.200000000000e+01 0.000000000000e+00 0.698491930962e-08 0.170000000000e+02
    0.442326000000e+06 0.400000000000e+01 0.000000000000e+00 0.000000000000e+00
27 23 03 10 03 59 44.0 0.845454633236e-04-0.852651282912e-11 0.000000000000e+00
    0.400000000000e+01-0.665312500000e+02 0.454447500991e-08 0.306927406198e+00
   -0.349245965481e-05 0.114620890236e-01 0.630877912045e-05 0.515366289139e+04
    0.446384000000e+06-0.111758708954e-07 0.270276304840e+01 0.145286321640e-06
    0.968693714644e+00 0.264187500000e+03 0.708483663966e+00-0.834070456668e-08
   -0.387516141603e-09 0.100000000000e+01 0.225200000000e+04 0.000000000000e+00
    0.200000000000e+01 0.000000000000e+00 0.186264514923e-08 0.400000000000e+01
    0.442308000000e+06 0.400000000000e+01 0.000000000000e+00 0.000000000000e+00
28 23 03 10 04 00  0.0 0.386736355722e-04 0.109139364213e-10 0.000000000000e+00
    0.700000000000e+01 0.215937500000e+02 0.420338937375e-08 0.217751497652e+01
    0.116229057312e-05 0.946522457525e-03 0.120792537928e-04 0.515364385796e+04
    0.446400000000e+06 0.633299350739e-07 0.575637291798e+00 0.577419996262e-07
    0.961994294467e+00 0.149000000000e+03 0.169326968229e+01-0.782818321811e-08
    0.600024993449e-10 0.100000000000e+01 0.225200000000e+04 0.000000000000e+00
    0.200000000000e+01 0.000000000000e+00-0.139698386192e-08 0.519000000000e+03
    0.442326000000e+06 0.400000000000e+01 0.000000000000e+00 0.000000000000e+00
31 23 03 10 03 59 44.0-0.211221165955e-03-0.909494701773e-12 0.000000000000e+00
    0.800000000000e+01 0.321562500000e+02 0.429589322691e-08 0.312251749213e+01
    0.160746276379e-05 0.106286195805e-01 0.120885670185e-04 0.515418647385e+04
    0.446384000000e+06-0.391155481339e-07 0.633508686694e+00-0.931322574615e-07
    0.954901726758e+00 0.143718750000e+03 0.518036617207e+00-0.776532345689e-08
    0.107147320259e-09 0.100000000000e+01 0.225200000000e+04 0.000000000000e+00
    0.200000000000e+01 0.000000000000e+00-0.135041773319e-07 0.800000000000e+01
    0.442332000000e+06 0.400000000000e+01 0.000000000000e+00 0.000000000000e+00
